{
    "links": {
        "self": "http://www.neowsapp.com/rest/v1/neo/3468528?api_key=iIulBulltgU6a56xZRHN4H3l9WmuAYTsLGpBGhQ2"
    },
    "id": "3468528",
    "neo_reference_id": "3468528",
    "name": "(2009 SN104)",
    "designation": "2009 SN104",
    "nasa_jpl_url": "http://ssd.jpl.nasa.gov/sbdb.cgi?sstr=3468528",
    "absolute_magnitude_h": 22.4,
    "estimated_diameter": {
        "kilometers": {
            "estimated_diameter_min": 0.0880146521,
            "estimated_diameter_max": 0.1968067451
        },
        "meters": {
            "estimated_diameter_min": 88.0146520901,
            "estimated_diameter_max": 196.8067450894
        },
        "miles": {
            "estimated_diameter_min": 0.0546897524,
            "estimated_diameter_max": 0.122290004
        },
        "feet": {
            "estimated_diameter_min": 288.7619911632,
            "estimated_diameter_max": 645.6914415591
        }
    },
    "is_potentially_hazardous_asteroid": false,
    "close_approach_data": [
        {
            "close_approach_date": "2009-08-21",
            "close_approach_date_full": "2009-Aug-21 04:55",
            "epoch_date_close_approach": 1250830500000,
            "relative_velocity": {
                "kilometers_per_second": "7.2139171999",
                "kilometers_per_hour": "25970.1019195171",
                "miles_per_hour": "16136.8113843799"
            },
            "miss_distance": {
                "astronomical": "0.1522585299",
                "lunar": "59.2285681311",
                "kilometers": "22777551.762371313",
                "miles": "14153314.3672295994"
            },
            "orbiting_body": "Earth"
        }
    ],
    "orbital_data": {
        "orbit_id": "6",
        "orbit_determination_date": "2017-04-06 08:59:48",
        "first_observation_date": "2009-09-26",
        "last_observation_date": "2009-09-27",
        "data_arc_in_days": 1,
        "observations_used": 19,
        "orbit_uncertainty": "9",
        "minimum_orbit_intersection": ".140833",
        "jupiter_tisserand_invariant": "3.628",
        "epoch_osculation": "2455101.5",
        "eccentricity": ".4527878132811683",
        "semi_major_axis": "2.067660852830324",
        "inclination": "8.647123143612315",
        "ascending_node_longitude": "168.5895201776617",
        "orbital_period": "1085.968891808317",
        "perihelion_distance": "1.131449216670206",
        "perihelion_argument": "145.7335816639267",
        "aphelion_distance": "3.003872488990441",
        "perihelion_time": "2455053.943021196504",
        "mean_anomaly": "15.76519594474763",
        "mean_motion": ".3315012084743428",
        "equinox": "J2000",
        "orbit_class": {
            "orbit_class_type": "AMO",
            "orbit_class_description": "Near-Earth asteroid orbits similar to that of 1221 Amor",
            "orbit_class_range": "1.017 AU < q (perihelion) < 1.3 AU"
        }
    },
    "is_sentry_object": false
}